CZ-2C R/B               
1 54039U 22132E   26049.52405735  .00036627  00000+0  44722-3 0  9998
2 54039  97.2957  52.2868 0019764 153.8230 206.4031 15.60125504187384
GSLV R/B                
1 54149U 22138AN  26049.39850105  .00003366  00000+0  29198-3 0  9990
2 54149  87.3876 172.8168 0020213 216.6797 143.3052 14.96620677181043
XRISM                   
1 57800U 23137A   26049.42214365  .00005182  00000+0  29486-3 0  9991
2 57800  31.0028  48.2585 0008235 207.4674 152.5530 15.11251111134879
ACS3                    
1 59588U 24077B   26049.41059018  .00015079  00000+0  12384-1 0  9994
2 59588  97.2179 354.8572 0048349 133.3882 227.1323 13.88755856 91525
SZ-21 MODULE            
1 66515U 25246C   26049.13466482  .00031807  00000+0  29213-3 0  9995
2 66515  41.4764 323.5946 0001868 299.0458  61.0196 15.67019082 15001
